{"type": "FeatureCollection", "features": [ {"type": "Feature", "properties": {"norad_id": 32289, "name": "YAOGAN-3", "group": "resource", "lat": -3.368204248269139, "lon": 25.68409494207225, "alt_km": 601.6221013986897, "timestamp": "2025-12-24T16:52:41.156881+00:00", "meta": {"OBJECT_NAME": "YAOGAN-3", "OBJECT_ID": "2007-055A", "EPOCH": "2025-12-24T07:13:20.527392", "MEAN_MOTION": 14.89911234, "ECCENTRICITY": 0.00012556, "INCLINATION": 97.8351, "RA_OF_ASC_NODE": 24.8211, "ARG_OF_PERICENTER": 84.78, "MEAN_ANOMALY": 275.3561, "EPHEMERIS_TYPE": 0, "CLASSIFICATION_TYPE": "U", "NORAD_CAT_ID": 32289, "ELEMENT_SET_NO": 999, "REV_AT_EPOCH": 97981, "BSTAR": 0.00025619649, "MEAN_MOTION_DOT": 2.409e-05, "MEAN_MOTION_DDOT": 0}, "tle": {"line1": "1 32289U 07055A   25358.30093203  .00002409  00000+0  25620-3 0  9996", "line2": "2 32289  97.8351  24.8211 0001255  84.7800 275.3561 14.89911234979812"}}, "geometry": {"type": "Point", "coordinates": [25.68409494207225, -3.368204248269139]}}, {"type": "Feature", "properties": {"norad_id": 32376, "name": "COSMO-SKYMED 2", "group": "resource", "lat": -55.98534487476732, "lon": -168.31014875079254, "alt_km": 630.2759475670455, "timestamp": "2025-12-24T16:52:41.156892+00:00", "meta": {"OBJECT_NAME": "COSMO-SKYMED 2", "OBJECT_ID": "2007-059A", "EPOCH": "2025-12-24T07:24:44.980416", "MEAN_MOTION": 14.82156339, "ECCENTRICITY": 0.00013076, "INCLINATION": 97.8805, "RA_OF_ASC_NODE": 179.4584, "ARG_OF_PERICENTER": 82.5788, "MEAN_ANOMALY": 277.5574, "EPHEMERIS_TYPE": 0, "CLASSIFICATION_TYPE": "U", "NORAD_CAT_ID": 32376, "ELEMENT_SET_NO": 999, "REV_AT_EPOCH": 97609, "BSTAR": 7.4658606e-05, "MEAN_MOTION_DOT": 5.42e-06, "MEAN_MOTION_DDOT": 0}, "tle": {"line1": "1 32376U 07059A   25358.30885394  .00000542  00000+0  74659-4 0  9990", "line2": "2 32376  97.8805 179.4584 0001307  82.5788 277.5574 14.82156339976097"}}, "geometry": {"type": "Point", "coordinates": [-168.31014875079254, -55.98534487476732]}}, {"type": "Feature", "properties": {"norad_id": 32382, "name": "RADARSAT-2", "group": "resource", "lat": 10.631889695669912, "lon": -175.2568772055113, "alt_km": 793.1697869764257, "timestamp": "2025-12-24T16:52:41.156902+00:00", "meta": {"OBJECT_NAME": "RADARSAT-2", "OBJECT_ID": "2007-061A", "EPOCH": "2025-12-24T07:41:35.985696", "MEAN_MOTION": 14.29985336, "ECCENTRICITY": 0.00011299, "INCLINATION": 98.5793, "RA_OF_ASC_NODE": 2.7421, "ARG_OF_PERICENTER": 84.29, "MEAN_ANOMALY": 275.8411, "EPHEMERIS_TYPE": 0, "CLASSIFICATION_TYPE": "U", "NORAD_CAT_ID": 32382, "ELEMENT_SET_NO": 999, "REV_AT_EPOCH": 94096, "BSTAR": 9.8834616e-05, "MEAN_MOTION_DOT": 2.11e-06, "MEAN_MOTION_DDOT": 0}, "tle": {"line1": "1 32382U 07061A   25358.32055539  .00000211  00000+0  98835-4 0  9997", "line2": "2 32382  98.5793   2.7421 0001129  84.2900 275.8411 14.29985336940969"}}, "geometry": {"type": "Point", "coordinates": [-175.2568772055113, 10.631889695669912]}}, {"type": "Feature", "properties": {"norad_id": 32783, "name": "CARTOSAT-2A", "group": "resource", "lat": -54.40044477841965, "lon": 59.17752158270165, "alt_km": 632.4228620994918, "timestamp": "2025-12-24T16:52:41.156914+00:00", "meta": {"OBJECT_NAME": "CARTOSAT-2A", "OBJECT_ID": "2008-021A", "EPOCH": "2025-12-24T07:23:02.408064", "MEAN_MOTION": 14.78952413, "ECCENTRICITY": 0.0010992, "INCLINATION": 97.791, "RA_OF_ASC_NODE": 47.769, "ARG_OF_PERICENTER": 326.2314, "MEAN_ANOMALY": 33.8197, "EPHEMERIS_TYPE": 0, "CLASSIFICATION_TYPE": "U", "NORAD_CAT_ID": 32783, "ELEMENT_SET_NO": 999, "REV_AT_EPOCH": 95295, "BSTAR": 0.00014689816, "MEAN_MOTION_DOT": 1.034e-05, "MEAN_MOTION_DDOT": 0}, "tle": {"line1": "1 32783U 08021A   25358.30766676  .00001034  00000+0  14690-3 0  9998", "line2": "2 32783  97.7910  47.7690 0010992 326.2314  33.8197 14.78952413952958"}}, "geometry": {"type": "Point", "coordinates": [59.17752158270165, -54.40044477841965]}}, {"type": "Feature", "properties": {"norad_id": 33320, "name": "HUANJING 1A (HJ-1A)", "group": "resource", "lat": 2.186235568808395, "lon": -13.791694958424745, "alt_km": 607.818267528618, "timestamp": "2025-12-24T16:52:41.156925+00:00", "meta": {"OBJECT_NAME": "HUANJING 1A (HJ-1A)", "OBJECT_ID": "2008-041A", "EPOCH": "2025-12-24T07:09:18.126144", "MEAN_MOTION": 14.83428691, "ECCENTRICITY": 0.00193171, "INCLINATION": 97.6547, "RA_OF_ASC_NODE": 346.1142, "ARG_OF_PERICENTER": 357.6206, "MEAN_ANOMALY": 2.4913, "EPHEMERIS_TYPE": 0, "CLASSIFICATION_TYPE": "U", "NORAD_CAT_ID": 33320, "ELEMENT_SET_NO": 999, "REV_AT_EPOCH": 93247, "BSTAR": 0.00018243951, "MEAN_MOTION_DOT": 1.451e-05, "MEAN_MOTION_DDOT": 0}, "tle": {"line1": "1 33320U 08041A   25358.29812646  .00001451  00000+0  18244-3 0  9997", "line2": "2 33320  97.6547 346.1142 0019317 357.6206   2.4913 14.83428691932472"}}, "geometry": {"type": "Point", "coordinates": [-13.791694958424745, 2.186235568808395]}}, {"type": "Feature", "properties": {"norad_id": 33321, "name": "HUANJING 1B (HJ-1B)", "group": "resource", "lat": -18.692341304751285, "lon": 167.5648340728134, "alt_km": 650.4503864031176, "timestamp": "2025-12-24T16:52:41.156937+00:00", "meta": {"OBJECT_NAME": "HUANJING 1B (HJ-1B)", "OBJECT_ID": "2008-041B", "EPOCH": "2025-12-24T06:16:09.920352", "MEAN_MOTION": 14.82850093, "ECCENTRICITY": 0.00377933, "INCLINATION": 97.6403, "RA_OF_ASC_NODE": 349.7454, "ARG_OF_PERICENTER": 39.1893, "MEAN_ANOMALY": 321.2047, "EPHEMERIS_TYPE": 0, "CLASSIFICATION_TYPE": "U", "NORAD_CAT_ID": 33321, "ELEMENT_SET_NO": 999, "REV_AT_EPOCH": 93248, "BSTAR": 0.00019406429, "MEAN_MOTION_DOT": 1.539e-05, "MEAN_MOTION_DDOT": 0}, "tle": {"line1": "1 33321U 08041B   25358.26122593  .00001539  00000+0  19406-3 0  9998", "line2": "2 33321  97.6403 349.7454 0037793  39.1893 321.2047 14.82850093932486"}}, "geometry": {"type": "Point", "coordinates": [167.5648340728134, -18.692341304751285]}}, {"type": "Feature", "properties": {"norad_id": 33331, "name": "GEOEYE 1", "group": "resource", "lat": 52.657863644852114, "lon": -99.37710342720416, "alt_km": 673.6719478640798, "timestamp": "2025-12-24T16:52:41.156948+00:00", "meta": {"OBJECT_NAME": "GEOEYE 1", "OBJECT_ID": "2008-042A", "EPOCH": "2025-12-24T04:49:32.062656", "MEAN_MOTION": 14.64715139, "ECCENTRICITY": 0.00029589, "INCLINATION": 98.1238, "RA_OF_ASC_NODE": 69.3367, "ARG_OF_PERICENTER": 235.0096, "MEAN_ANOMALY": 125.083, "EPHEMERIS_TYPE": 0, "CLASSIFICATION_TYPE": "U", "NORAD_CAT_ID": 33331, "ELEMENT_SET_NO": 999, "REV_AT_EPOCH": 92453, "BSTAR": 0.00012001542, "MEAN_MOTION_DOT": 5.91e-06, "MEAN_MOTION_DDOT": 0}, "tle": {"line1": "1 33331U 08042A   25358.20106554  .00000591  00000+0  12002-3 0  9995", "line2": "2 33331  98.1238  69.3367 0002958 235.0096 125.0830 14.64715139924532"}}, "geometry": {"type": "Point", "coordinates": [-99.37710342720416, 52.657863644852114]}}, {"type": "Feature", "properties": {"norad_id": 33396, "name": "THEOS", "group": "resource", "lat": -43.64246135347134, "lon": -131.84412028045682, "alt_km": 832.2330019220653, "timestamp": "2025-12-24T16:52:41.156960+00:00", "meta": {"OBJECT_NAME": "THEOS", "OBJECT_ID": "2008-049A", "EPOCH": "2025-12-24T07:22:15.154176", "MEAN_MOTION": 14.20098416, "ECCENTRICITY": 0.00012132, "INCLINATION": 98.5847, "RA_OF_ASC_NODE": 56.0547, "ARG_OF_PERICENTER": 93.4251, "MEAN_ANOMALY": 266.7064, "EPHEMERIS_TYPE": 0, "CLASSIFICATION_TYPE": "U", "NORAD_CAT_ID": 33396, "ELEMENT_SET_NO": 999, "REV_AT_EPOCH": 89314, "BSTAR": 4.8549344e-05, "MEAN_MOTION_DOT": 6.1e-07, "MEAN_MOTION_DDOT": 0}, "tle": {"line1": "1 33396U 08049A   25358.30711984  .00000061  00000+0  48549-4 0  9991", "line2": "2 33396  98.5847  56.0547 0001213  93.4251 266.7064 14.20098416893146"}}, "geometry": {"type": "Point", "coordinates": [-131.84412028045682, -43.64246135347134]}}, {"type": "Feature", "properties": {"norad_id": 33412, "name": "COSMO-SKYMED 3", "group": "resource", "lat": 19.429444164967176, "lon": -153.49105338609394, "alt_km": 554.924482814452, "timestamp": "2025-12-24T16:52:41.156972+00:00", "meta": {"OBJECT_NAME": "COSMO-SKYMED 3", "OBJECT_ID": "2008-054A", "EPOCH": "2025-12-24T07:13:11.354304", "MEAN_MOTION": 15.05449686, "ECCENTRICITY": 0.00170798, "INCLINATION": 97.8455, "RA_OF_ASC_NODE": 208.8877, "ARG_OF_PERICENTER": 133.9861, "MEAN_ANOMALY": 226.2776, "EPHEMERIS_TYPE": 0, "CLASSIFICATION_TYPE": "U", "NORAD_CAT_ID": 33412, "ELEMENT_SET_NO": 999, "REV_AT_EPOCH": 93061, "BSTAR": 0.00018398249, "MEAN_MOTION_DOT": 2.585e-05, "MEAN_MOTION_DDOT": 0}, "tle": {"line1": "1 33412U 08054A   25358.30082586  .00002585  00000+0  18398-3 0  9996", "line2": "2 33412  97.8455 208.8877 0017079 133.9861 226.2776 15.05449686930617"}}, "geometry": {"type": "Point", "coordinates": [-153.49105338609394, 19.429444164967176]}}, {"type": "Feature", "properties": {"norad_id": 33446, "name": "YAOGAN-4", "group": "resource", "lat": 73.38665246413652, "lon": 136.49710236285057, "alt_km": 622.8147800607003, "timestamp": "2025-12-24T16:52:41.156984+00:00", "meta": {"OBJECT_NAME": "YAOGAN-4", "OBJECT_ID": "2008-061A", "EPOCH": "2025-12-24T06:41:21.910848", "MEAN_MOTION": 14.82714813, "ECCENTRICITY": 0.00129966, "INCLINATION": 97.9197, "RA_OF_ASC_NODE": 288.2655, "ARG_OF_PERICENTER": 282.4259, "MEAN_ANOMALY": 77.55, "EPHEMERIS_TYPE": 0, "CLASSIFICATION_TYPE": "U", "NORAD_CAT_ID": 33446, "ELEMENT_SET_NO": 999, "REV_AT_EPOCH": 91974, "BSTAR": 0.0001734889, "MEAN_MOTION_DOT": 1.348e-05, "MEAN_MOTION_DDOT": 0}, "tle": {"line1": "1 33446U 08061A   25358.27872582  .00001348  00000+0  17349-3 0  9991", "line2": "2 33446  97.9197 288.2655 0012996 282.4259  77.5500 14.82714813919742"}}, "geometry": {"type": "Point", "coordinates": [136.49710236285057, 73.38665246413652]}}]}